STARLINK-2110           
1 47389U 21005AS  26088.87335120  .00000271  00000+0  21277-4 0  9994
2 47389  53.1588 303.0062 0001101 108.5469 251.5652 15.30193951286484
STARLINK-2111           
1 47390U 21005AT  26089.25002314 -.00017923  00000+0 -10693-2 0  9997
2 47390  53.0915 329.0441 0001519  85.5007 255.1230 15.10215780  5780
STARLINK-2112           
1 47391U 21005AU  26089.02597253  .00000319  00000+0  40288-4 0  9998
2 47391  53.0547 300.3246 0001427  97.1604 262.9547 15.06394081286524
STARLINK-2113           
1 47392U 21005AV  26089.05491987  .00112490  00000+0  12106-2 0  9999
2 47392  53.0497 277.1083 0005074 214.0043 146.0646 15.62885005286859
STARLINK-2114           
1 47393U 21005AW  26088.91385220  .00169598  00000+0  13381-2 0  9993
2 47393  53.0419 244.1709 0003441 315.6969  44.3772 15.70380840287301
STARLINK-2119           
1 47397U 21005BA  26089.20104237  .00011446  00000+0  39799-3 0  9997
2 47397  53.1596 327.1451 0001203  91.2275 268.8864 15.30198031286173
STARLINK-2121           
1 47399U 21005BC  26087.89677149  .00009405  00000+0  32901-3 0  9999
2 47399  53.1594 307.4919 0001193 101.0918 259.0217 15.30223443286333
STARLINK-2122           
1 47400U 21005BD  26087.82354984  .00014558  00000+0  50248-3 0  9993
2 47400  53.1573 284.6326 0001030  99.0365 261.0752 15.30213658286652
STARLINK-2123           
1 47401U 21005BE  26088.96794388 -.00000743  00000+0 -30983-4 0  9994
2 47401  53.0546 300.5851 0001362  95.2487 264.8658 15.06394151286527
STARLINK-2128           
1 47404U 21005BH  26089.09120208  .00107718  00000+0  10649-2 0  9999
2 47404  53.0498 276.2971 0004488 233.4469 126.6133 15.65064932286873
STARLINK-2130           
1 47405U 21005BJ  26089.06727076  .00002624  00000+0  10069-3 0  9990
2 47405  53.1612 327.8070 0001214  85.1696 274.9443 15.30196080286147
STARLINK-2134           
1 47407U 21005BL  26088.87579381 -.00000167  00000+0  76804-5 0  9996
2 47407  53.0545 300.9980 0001403  93.6181 266.4968 15.06394812286502
STARLINK-2135           
1 47408U 21005BM  26088.97899780 -.00001229  00000+0 -63633-4 0  9992
2 47408  53.0525 300.5353 0001367  87.9333 272.1812 15.06395293286523
STARLINK-1954           
1 47555U 21009H   26088.93614916  .00066061  00000+0  20405-2 0  9992
2 47555  53.0541 275.6693 0003211 184.6343 175.4629 15.32944181284062
STARLINK-1958           
1 47559U 21009M   26087.68280471  .00129360  00000+0  98677-3 0  9991
2 47559  53.0425 227.6671 0007600  22.2071 337.9274 15.71302640284625
STARLINK-1962           
1 47563U 21009R   26089.17746124  .00120241  00000+0  11106-2 0  9994
2 47563  53.0419 256.0672 0004111 164.2243 195.8901 15.66711655284354
