[{"OBJECT_NAME":"STARLINK-2110","OBJECT_ID":"2021-005AS","EPOCH":"2026-03-29T20:57:37.543680","MEAN_MOTION":15.30193951,"ECCENTRICITY":0.0001101,"INCLINATION":53.1588,"RA_OF_ASC_NODE":303.0062,"ARG_OF_PERICENTER":108.5469,"MEAN_ANOMALY":251.5652,"EPHEMERIS_TYPE":0,"CLASSIFICATION_TYPE":"U","NORAD_CAT_ID":47389,"ELEMENT_SET_NO":999,"REV_AT_EPOCH":28648,"BSTAR":2.1277e-5,"MEAN_MOTION_DOT":2.71e-6,"MEAN_MOTION_DDOT":0},{"OBJECT_NAME":"STARLINK-2111","OBJECT_ID":"2021-005AT","EPOCH":"2026-03-30T06:00:01.999296","MEAN_MOTION":15.1021578,"ECCENTRICITY":0.0001519,"INCLINATION":53.0915,"RA_OF_ASC_NODE":329.0441,"ARG_OF_PERICENTER":85.5007,"MEAN_ANOMALY":255.123,"EPHEMERIS_TYPE":0,"CLASSIFICATION_TYPE":"U","NORAD_CAT_ID":47390,"ELEMENT_SET_NO":999,"REV_AT_EPOCH":578,"BSTAR":-0.0010693,"MEAN_MOTION_DOT":-0.00017923,"MEAN_MOTION_DDOT":0},{"OBJECT_NAME":"STARLINK-2112","OBJECT_ID":"2021-005AU","EPOCH":"2026-03-30T00:37:24.026592","MEAN_MOTION":15.06394081,"ECCENTRICITY":0.0001427,"INCLINATION":53.0547,"RA_OF_ASC_NODE":300.3246,"ARG_OF_PERICENTER":97.1604,"MEAN_ANOMALY":262.9547,"EPHEMERIS_TYPE":0,"CLASSIFICATION_TYPE":"U","NORAD_CAT_ID":47391,"ELEMENT_SET_NO":999,"REV_AT_EPOCH":28652,"BSTAR":4.0288e-5,"MEAN_MOTION_DOT":3.19e-6,"MEAN_MOTION_DDOT":0},{"OBJECT_NAME":"STARLINK-2113","OBJECT_ID":"2021-005AV","EPOCH":"2026-03-30T01:19:05.076768","MEAN_MOTION":15.62885005,"ECCENTRICITY":0.0005074,"INCLINATION":53.0497,"RA_OF_ASC_NODE":277.1083,"ARG_OF_PERICENTER":214.0043,"MEAN_ANOMALY":146.0646,"EPHEMERIS_TYPE":0,"CLASSIFICATION_TYPE":"U","NORAD_CAT_ID":47392,"ELEMENT_SET_NO":999,"REV_AT_EPOCH":28685,"BSTAR":0.0012106,"MEAN_MOTION_DOT":0.0011249,"MEAN_MOTION_DDOT":0},{"OBJECT_NAME":"STARLINK-2114","OBJECT_ID":"2021-005AW","EPOCH":"2026-03-29T21:55:56.830080","MEAN_MOTION":15.7038084,"ECCENTRICITY":0.0003441,"INCLINATION":53.0419,"RA_OF_ASC_NODE":244.1709,"ARG_OF_PERICENTER":315.6969,"MEAN_ANOMALY":44.3772,"EPHEMERIS_TYPE":0,"CLASSIFICATION_TYPE":"U","NORAD_CAT_ID":47393,"ELEMENT_SET_NO":999,"REV_AT_EPOCH":28730,"BSTAR":0.0013381,"MEAN_MOTION_DOT":0.00169598,"MEAN_MOTION_DDOT":0},{"OBJECT_NAME":"STARLINK-2119","OBJECT_ID":"2021-005BA","EPOCH":"2026-03-30T04:49:30.060768","MEAN_MOTION":15.30198031,"ECCENTRICITY":0.0001203,"INCLINATION":53.1596,"RA_OF_ASC_NODE":327.1451,"ARG_OF_PERICENTER":91.2275,"MEAN_ANOMALY":268.8864,"EPHEMERIS_TYPE":0,"CLASSIFICATION_TYPE":"U","NORAD_CAT_ID":47397,"ELEMENT_SET_NO":999,"REV_AT_EPOCH":28617,"BSTAR":0.00039799,"MEAN_MOTION_DOT":0.00011446,"MEAN_MOTION_DDOT":0},{"OBJECT_NAME":"STARLINK-2121","OBJECT_ID":"2021-005BC","EPOCH":"2026-03-28T21:31:21.056736","MEAN_MOTION":15.30223443,"ECCENTRICITY":0.00011935,"INCLINATION":53.1594,"RA_OF_ASC_NODE":307.4919,"ARG_OF_PERICENTER":101.0918,"MEAN_ANOMALY":259.0217,"EPHEMERIS_TYPE":0,"CLASSIFICATION_TYPE":"U","NORAD_CAT_ID":47399,"ELEMENT_SET_NO":999,"REV_AT_EPOCH":28633,"BSTAR":0.00032900915,"MEAN_MOTION_DOT":9.405e-5,"MEAN_MOTION_DDOT":0},{"OBJECT_NAME":"STARLINK-2122","OBJECT_ID":"2021-005BD","EPOCH":"2026-03-28T19:45:54.706176","MEAN_MOTION":15.30213658,"ECCENTRICITY":0.00010307,"INCLINATION":53.1573,"RA_OF_ASC_NODE":284.6326,"ARG_OF_PERICENTER":99.0365,"MEAN_ANOMALY":261.0752,"EPHEMERIS_TYPE":0,"CLASSIFICATION_TYPE":"U","NORAD_CAT_ID":47400,"ELEMENT_SET_NO":999,"REV_AT_EPOCH":28665,"BSTAR":0.00050248397,"MEAN_MOTION_DOT":0.00014558,"MEAN_MOTION_DDOT":0},{"OBJECT_NAME":"STARLINK-2123","OBJECT_ID":"2021-005BE","EPOCH":"2026-03-29T23:13:50.351232","MEAN_MOTION":15.06394151,"ECCENTRICITY":0.0001362,"INCLINATION":53.0546,"RA_OF_ASC_NODE":300.5851,"ARG_OF_PERICENTER":95.2487,"MEAN_ANOMALY":264.8658,"EPHEMERIS_TYPE":0,"CLASSIFICATION_TYPE":"U","NORAD_CAT_ID":47401,"ELEMENT_SET_NO":999,"REV_AT_EPOCH":28652,"BSTAR":-3.0983e-5,"MEAN_MOTION_DOT":-7.43e-6,"MEAN_MOTION_DDOT":0},{"OBJECT_NAME":"STARLINK-2128","OBJECT_ID":"2021-005BH","EPOCH":"2026-03-30T02:11:19.859712","MEAN_MOTION":15.65064932,"ECCENTRICITY":0.0004488,"INCLINATION":53.0498,"RA_OF_ASC_NODE":276.2971,"ARG_OF_PERICENTER":233.4469,"MEAN_ANOMALY":126.6133,"EPHEMERIS_TYPE":0,"CLASSIFICATION_TYPE":"U","NORAD_CAT_ID":47404,"ELEMENT_SET_NO":999,"REV_AT_EPOCH":28687,"BSTAR":0.0010649,"MEAN_MOTION_DOT":0.00107718,"MEAN_MOTION_DDOT":0},{"OBJECT_NAME":"STARLINK-2130","OBJECT_ID":"2021-005BJ","EPOCH":"2026-03-30T01:36:52.193664","MEAN_MOTION":15.3019608,"ECCENTRICITY":0.0001214,"INCLINATION":53.1612,"RA_OF_ASC_NODE":327.807,"ARG_OF_PERICENTER":85.1696,"MEAN_ANOMALY":274.9443,"EPHEMERIS_TYPE":0,"CLASSIFICATION_TYPE":"U","NORAD_CAT_ID":47405,"ELEMENT_SET_NO":999,"REV_AT_EPOCH":28614,"BSTAR":0.00010069,"MEAN_MOTION_DOT":2.624e-5,"MEAN_MOTION_DDOT":0},{"OBJECT_NAME":"STARLINK-2134","OBJECT_ID":"2021-005BL","EPOCH":"2026-03-29T21:01:08.585184","MEAN_MOTION":15.06394812,"ECCENTRICITY":0.0001403,"INCLINATION":53.0545,"RA_OF_ASC_NODE":300.998,"ARG_OF_PERICENTER":93.6181,"MEAN_ANOMALY":266.4968,"EPHEMERIS_TYPE":0,"CLASSIFICATION_TYPE":"U","NORAD_CAT_ID":47407,"ELEMENT_SET_NO":999,"REV_AT_EPOCH":28650,"BSTAR":7.6804e-6,"MEAN_MOTION_DOT":-1.67e-6,"MEAN_MOTION_DDOT":0},{"OBJECT_NAME":"STARLINK-2135","OBJECT_ID":"2021-005BM","EPOCH":"2026-03-29T23:29:45.409920","MEAN_MOTION":15.06395293,"ECCENTRICITY":0.0001367,"INCLINATION":53.0525,"RA_OF_ASC_NODE":300.5353,"ARG_OF_PERICENTER":87.9333,"MEAN_ANOMALY":272.1812,"EPHEMERIS_TYPE":0,"CLASSIFICATION_TYPE":"U","NORAD_CAT_ID":47408,"ELEMENT_SET_NO":999,"REV_AT_EPOCH":28652,"BSTAR":-6.3633e-5,"MEAN_MOTION_DOT":-1.229e-5,"MEAN_MOTION_DDOT":0},{"OBJECT_NAME":"STARLINK-1954","OBJECT_ID":"2021-009H","EPOCH":"2026-03-29T22:28:03.287424","MEAN_MOTION":15.32944181,"ECCENTRICITY":0.0003211,"INCLINATION":53.0541,"RA_OF_ASC_NODE":275.6693,"ARG_OF_PERICENTER":184.6343,"MEAN_ANOMALY":175.4629,"EPHEMERIS_TYPE":0,"CLASSIFICATION_TYPE":"U","NORAD_CAT_ID":47555,"ELEMENT_SET_NO":999,"REV_AT_EPOCH":28406,"BSTAR":0.0020405,"MEAN_MOTION_DOT":0.00066061,"MEAN_MOTION_DDOT":0},{"OBJECT_NAME":"STARLINK-1958","OBJECT_ID":"2021-009M","EPOCH":"2026-03-28T16:23:14.326944","MEAN_MOTION":15.7130264,"ECCENTRICITY":0.00076009,"INCLINATION":53.0425,"RA_OF_ASC_NODE":227.6671,"ARG_OF_PERICENTER":22.2071,"MEAN_ANOMALY":337.9274,"EPHEMERIS_TYPE":0,"CLASSIFICATION_TYPE":"U","NORAD_CAT_ID":47559,"ELEMENT_SET_NO":999,"REV_AT_EPOCH":28462,"BSTAR":0.00098676513,"MEAN_MOTION_DOT":0.0012936,"MEAN_MOTION_DDOT":0},{"OBJECT_NAME":"STARLINK-1962","OBJECT_ID":"2021-009R","EPOCH":"2026-03-30T04:15:32.651136","MEAN_MOTION":15.66711655,"ECCENTRICITY":0.0004111,"INCLINATION":53.0419,"RA_OF_ASC_NODE":256.0672,"ARG_OF_PERICENTER":164.2243,"MEAN_ANOMALY":195.8901,"EPHEMERIS_TYPE":0,"CLASSIFICATION_TYPE":"U","NORAD_CAT_ID":47563,"ELEMENT_SET_NO":999,"REV_AT_EPOCH":28435,"BSTAR":0.0011106,"MEAN_MOTION_DOT":0.00120241,"MEAN_MOTION_DDOT":0}]
